[{"OBJECT_NAME":"OBJECT A","OBJECT_ID":"2025-013A","EPOCH":"2026-03-09T23:29:31.895232","MEAN_MOTION":15.29260221,"ECCENTRICITY":0.0010321,"INCLINATION":97.6364,"RA_OF_ASC_NODE":244.5149,"ARG_OF_PERICENTER":282.3775,"MEAN_ANOMALY":77.6309,"EPHEMERIS_TYPE":0,"CLASSIFICATION_TYPE":"U","NORAD_CAT_ID":62729,"ELEMENT_SET_NO":999,"REV_AT_EPOCH":6276,"BSTAR":0.0013206527,"MEAN_MOTION_DOT":0.00037616,"MEAN_MOTION_DDOT":0},{"OBJECT_NAME":"STARLINK-35297","OBJECT_ID":"2025-232F","EPOCH":"2026-03-09T08:52:58.058688","MEAN_MOTION":15.3019855,"ECCENTRICITY":0.00012448,"INCLINATION":53.1589,"RA_OF_ASC_NODE":105.6027,"ARG_OF_PERICENTER":98.7636,"MEAN_ANOMALY":261.3506,"EPHEMERIS_TYPE":0,"CLASSIFICATION_TYPE":"U","NORAD_CAT_ID":66010,"ELEMENT_SET_NO":999,"REV_AT_EPOCH":2337,"BSTAR":0.00041178012,"MEAN_MOTION_DOT":0.00011856,"MEAN_MOTION_DDOT":0}]
